[{"OBJECT_NAME":"STARLINK-32417","OBJECT_ID":"2024-193N","EPOCH":"2026-03-09T07:52:53.671872","MEAN_MOTION":15.3019163,"ECCENTRICITY":0.00012737,"INCLINATION":53.1609,"RA_OF_ASC_NODE":92.5184,"ARG_OF_PERICENTER":89.2474,"MEAN_ANOMALY":270.8673,"EPHEMERIS_TYPE":0,"CLASSIFICATION_TYPE":"U","NORAD_CAT_ID":61673,"ELEMENT_SET_NO":999,"REV_AT_EPOCH":7647,"BSTAR":3.5054672e-5,"MEAN_MOTION_DOT":6.79e-6,"MEAN_MOTION_DDOT":0},{"OBJECT_NAME":"CZ-4B DEB","OBJECT_ID":"2004-035N","EPOCH":"2026-03-08T07:19:22.074240","MEAN_MOTION":15.17712882,"ECCENTRICITY":0.00700404,"INCLINATION":97.867,"RA_OF_ASC_NODE":11.9774,"ARG_OF_PERICENTER":119.6038,"MEAN_ANOMALY":241.2197,"EPHEMERIS_TYPE":0,"CLASSIFICATION_TYPE":"U","NORAD_CAT_ID":35270,"ELEMENT_SET_NO":999,"REV_AT_EPOCH":13623,"BSTAR":0.0033008842,"MEAN_MOTION_DOT":0.00071474,"MEAN_MOTION_DDOT":0}]
